XRISM                   
1 57800U 23137A   24215.89636535  .00007290  00000+0  53994-3 0  9995
2 57800  31.0034  75.1623 0010019 312.5115  47.4674 15.01752456 49715
